STARLINK-2022           
1 47643U 21012Z   23244.45447066  .00003957  00000+0  28439-3 0  9993
2 47643  53.0529 222.7178 0001153 100.4015 259.7104 15.06397508141042
